TRITON-1                
1 39427U 13066M   24127.90908980  .00002887  00000+0  41444-3 0  9994
2 39427  97.8436  47.2373 0102358 214.3374 145.1191 14.73694053560132
DELFI-N3XT              
1 39428U 13066N   24127.76285203  .00005985  00000+0  77961-3 0  9990
2 39428  97.8402  47.2123 0100813 222.1723 137.1702 14.77423374559977
GOMX-1                  
1 39430U 13066Q   24127.90681649  .00003289  00000+0  55232-3 0  9995
2 39430  97.7385   4.7834 0141558  24.6755 336.1134 14.63861684556823
CUBEBUG-2 (LO-74)       
1 39440U 13066AA  24127.82098876  .00006171  00000+0  73536-3 0  9991
2 39440  97.8116  72.4039 0072223  50.3571 310.3985 14.82788868562200
NEE-02 KRYSAOR          
1 39441U 13066AB  24127.79309169  .00004050  00000+0  51928-3 0  9993
2 39441  97.8209  68.4042 0076562  70.9824 289.9662 14.79739589561813
FUNCUBE-1 (AO-73)       
1 39444U 13066AE  24127.82830638  .00007895  00000+0  77967-3 0  9991
2 39444  97.7168  87.7720 0046519 278.9582  80.6373 14.91404213563944
UWE-3                   
1 39446U 13066AG  24127.83657848  .00006074  00000+0  68557-3 0  9997
2 39446  97.7786  78.4814 0061000 357.3961   2.6927 14.85549878562564
BRITE-CA1 (TORONTO)     
1 40020U 14033L   24127.88929002  .00001897  00000+0  31400-3 0  9996
2 40020  97.8713 266.4854 0082594 223.3205 136.1489 14.69218996528803
DUCHIFAT-1              
1 40021U 14033M   24127.91782682  .00014062  00000+0  97018-3 0  9997
2 40021  98.0878 109.6782 0011256 232.8603 127.1595 15.05871839537913
NANOSATC-BR1            
1 40024U 14033Q   24127.86197703  .00012068  00000+0  91806-3 0  9991
2 40024  98.0615  98.2851 0005393 320.2942  39.7886 15.02268218537041
QB50P1                  
1 40025U 14033R   24127.84216488  .00009849  00000+0  81784-3 0  9999
2 40025  98.0408  87.2725 0007419 306.9874  53.0668 14.98957544536683
QB50P2                  
1 40032U 14033Y   24127.84244611  .00006937  00000+0  59657-3 0  9995
2 40032  98.0043  79.2320 0008374 300.2589  59.7803 14.97708605536482
PERSEUS-M2              
1 40037U 14033AD  24127.80290957  .00002824  00000+0  29690-3 0  9995
2 40037  97.9264  58.4576 0012580 338.8137  21.2557 14.90198228535668
PERSEUS-M1              
1 40039U 14033AF  24127.75457990  .00003141  00000+0  33158-3 0  9990
2 40039  97.9070  54.5828 0012365 338.8182  21.2522 14.89958448535515
POLYITAN-1              
1 40042U 14033AJ  24127.85046280  .00012384  00000+0  96280-3 0  9995
2 40042  98.0634  90.4777 0012408 276.1645  83.8165 15.01385987536633
TIGRISAT                
1 40043U 14033AK  24127.72926350  .00003563  00000+0  48028-3 0  9993
2 40043  97.6915 292.2690 0056932  79.1506 281.6106 14.78622975531333
AEROCUBE 6A             
1 40045U 14033AM  24127.77248359  .00007479  00000+0  90790-3 0  9999
2 40045  97.6677 302.9125 0051821  58.7647 301.8629 14.82851251531659
AEROCUBE 6B             
1 40046U 14033AN  24127.76494277  .00007811  00000+0  92955-3 0  9996
2 40046  97.6640 301.5745 0050328  54.5354 306.0542 14.83708823531707
UKUBE-1                 
1 40074U 14037F   24127.79765997  .00008486  00000+0  82164-3 0  9994
2 40074  98.3428  55.2045 0003570 180.3472 179.7744 14.93006058532603
BRITE-PL2 (HEWELIUSZ)   
1 40119U 14049B   24127.81519961  .00003342  00000+0  36420-3 0  9998
2 40119  97.8799 227.6835 0017017 137.9591 222.2935 14.88563867526420
CP10 (EXOCUBE)          
1 40380U 15003E   24127.78316508  .00163180  00000+0  11334-2 0  9990
2 40380  99.0956 141.7120 0040649 250.8407 108.8449 15.72777823512898
AEROCUBE 5C             
1 40965U 15058B   24127.44563664  .00006619  00000+0  62074-3 0  9990
2 40965  64.7682 129.7670 0188406 321.0893  37.6775 14.82280207250853
AEROCUBE 7              
1 40966U 15058C   24127.71407108  .00008894  00000+0  80202-3 0  9991
2 40966  64.7660 123.0857 0183783 320.6891  38.0991 14.84017176250951
BISONSAT                
1 40968U 15058E   24127.85256547  .00007689  00000+0  70574-3 0  9999
2 40968  64.7758 135.3733 0183445 315.7691  42.8874 14.83529188  1685
SNAP-3 EDDIE            
1 40972U 15058J   24127.86792998  .00022801  00000+0  16256-2 0  9999
2 40972  64.7683  88.4790 0156424 314.8157  44.0326 14.95167494  1702
PROPCUBE 1 (FLORA)      
1 40976U 15058N   24127.49237728  .00004236  00000+0  42503-3 0  9994
2 40976  64.7747 154.0476 0186935 319.4794  39.2517 14.80510843  1629
VELOX-II                
1 41171U 15077F   24127.35280577  .00140999  00000+0  16503-2 0  9995
2 41171  14.9887  25.2969 0002610 251.5986 108.4057 15.59626051465214
HORYU-4                 
1 41340U 16012D   24127.65581656  .00013530  00000+0  69663-3 0  9994
2 41340  31.0025 246.0551 0009229 269.8342  90.1240 15.15161151451849
RAVAN                   
1 41849U 16067B   24127.92691013  .00011603  00000+0  65869-3 0  9990
2 41849  98.0622 303.2288 0014094 166.0852 194.0768 15.13030104409744
CELTEE 1                
1 41850U 16067C   24127.71452102  .00006833  00000+0  47446-3 0  9993
2 41850  98.0996 295.1061 0001029  64.1133 296.0198 15.05907804409181
OPTICUBE 04             
1 41851U 16067D   24127.93198824  .00004936  00000+0  37687-3 0  9994
2 41851  98.0726 291.1625 0018460 192.6454 167.4309 15.02344376409041
AEROCUBE 8D             
1 41852U 16067E   24127.93517059  .00009084  00000+0  61072-3 0  9994
2 41852  98.1044 294.9855 0004391 237.7906 122.2894 15.07001032409180
AEROCUBE 8C             
1 41853U 16067F   24127.94744465  .00010132  00000+0  68132-3 0  9999
2 41853  98.0847 293.6812 0008308 174.3778 185.7543 15.06940968409178
PROMETHEUS 2-1          
1 41854U 16067G   24127.71673549  .00018724  00000+0  99678-3 0  9993
2 41854  98.0976 300.1299 0013627 195.7735 164.3072 15.15210452409454
PROMETHEUS 2-3          
1 41855U 16067H   24127.44823133  .00019022  00000+0  10137-2 0  9994
2 41855  98.0904 299.3731 0011544 205.5088 154.5574 15.15191666409412
DIDO-2                  
1 42000U 17008BE  24127.94689063  .00141699  00000+0  97601-3 0  9998
2 42000  97.1383 188.2861 0003906 237.2370 122.8519 15.74190821402287
AALTO-1                 
1 42775U 17036L   24127.82951141  .00074297  00000+0  91018-3 0  9999
2 42775  97.1090 157.1566 0003631  25.4271 334.7164 15.60115098382645
URSA MAIOR              
1 42776U 17036M   24127.81887914  .00160697  00000+0  11620-2 0  9995
2 42776  97.1045 160.7139 0000481  11.2086 348.9189 15.73000799382862
CICERO 6                
1 42793U 17036AE  24127.82898894  .00266361  00000+0  13989-2 0  9999
2 42793  97.0880 165.0333 0001027 163.8920 196.2381 15.80021848383257
CORVUS BC2              
1 42846U 17042X   24127.82867194  .00003738  00000+0  32710-3 0  9995
2 42846  97.3747 315.2486 0007974 189.3855 170.7220 14.97268513371251
CORVUS BC1              
1 42847U 17042Y   24127.79395233  .00005089  00000+0  44185-3 0  9992
2 42847  97.3733 315.6116 0008185 186.1990 173.9133 14.97416376371262
MIRATA                  
1 43015U 17073C   24127.90273728  .00026719  00000+0  13050-2 0  9990
2 43015  97.6009  13.1685 0176587  42.3301 319.1397 15.05500810350115
MAKERSAT 0              
1 43016U 17073D   24127.60161699  .00016550  00000+0  95637-3 0  9995
2 43016  97.5870   7.7627 0201518  62.6766 299.4814 14.96753897349698
CORVUS BC3              
1 43118U 18004H   24127.74866785  .00214225  00000+0  12389-2 0  9997
2 43118  97.2864 212.4096 0001571 313.5381  46.5754 15.78006396352362
GOMX-4B                 
1 43196U 18015E   24127.75998146  .00058405  00000+0  76934-3 0  9996
2 43196  97.6055 298.3643 0008486 113.6811 246.5336 15.58216731349069
GOMX-4A                 
1 43197U 18015F   24127.90024961  .00095888  00000+0  89427-3 0  9996
2 43197  97.5971 302.9966 0006308 105.0766 255.1192 15.67007317349391
CICERO 10               
1 43690U 18088A   24127.71397179  .00115401  00000+0  10190-2 0  9991
2 43690  85.0170 209.1083 0005294 119.2736 240.9061 15.68300408305686
PROXIMA I               
1 43694U 18088E   24127.69367958  .00560204  13184-3  12593-2 0  9999
2 43694  85.0027 201.9442 0004921 259.6550 100.4178 15.97690532306209
PROXIMA II              
1 43696U 18088G   24127.92565223  .00492161  95902-4  12913-2 0  9993
2 43696  85.0040 201.9807 0004135 258.2162 101.8655 15.94826168306211
SIRION PATHFINDER-2     
1 43759U 18099B   24127.87022218  .00005318  00000+0  40751-3 0  9997
2 43759  97.5322 185.1888 0014056  73.4677 286.8091 15.02172490296302
CORVUS BC4              
1 43767U 18099K   24127.88539142  .00005680  00000+0  44273-3 0  9991
2 43767  97.5198 182.5320 0010691 131.7111 228.5030 15.01528292296193
MOVE-II                 
1 43780U 18099Y   24127.74309183  .00019830  00000+0  10991-2 0  9992
2 43780  97.5243 191.1651 0008684 122.4852 237.7220 15.13796435296653
SPACEBEE-7              
1 43816U 18099BL  24127.41727506  .00015255  00000+0  93607-3 0  9992
2 43816  97.5513 191.6574 0011416  78.2016 282.0493 15.10157639296108
SPACEBEE-6              
1 43818U 18099BN  24127.73046737  .00032822  00000+0  15123-2 0  9994
2 43818  97.5445 196.6586 0009501  84.6025 275.6294 15.20170473296609
SHIELDS 1               
1 43850U 18104B   24127.91486326  .00015242  00000+0  42845-3 0  9998
2 43850  85.0202 311.1050 0009897 217.8396 142.2159 15.36330920299825
SONATE                  
1 44400U 19038Q   24127.95724050  .00021271  00000+0  68460-3 0  9990
2 44400  97.7121 120.2730 0014250 247.5668 112.4063 15.32153356267765
LUCKY-7                 
1 44406U 19038W   24127.91365541  .00039070  00000+0  95783-3 0  9992
2 44406  97.7029 123.7736 0011848 225.9598 134.0672 15.40554081268007
BEESAT 9                
1 44412U 19038AC  24127.94955991  .00286300  00000+0  16796-2 0  9992
2 44412  97.6775 132.1575 0010018 172.4955 187.6462 15.77429823268294
